KUIPER-00027            
1 63740U 25088S   25273.72778634  .00009507  00000+0  12747-2 0  9999
2 63740  51.9005  82.6919 0004468   5.8921 354.2093 14.79918007 23933
KUIPER-00028            
1 63741U 25088T   25274.83335647  .00031462  00000+0  42177-2 0  9991
2 63741  51.8993  75.7357 0004510  34.7363  34.6611 14.79108722  5184
KUIPER-00029            
1 63742U 25088U   25274.83335647  .00032626  00000+0  43003-2 0  9994
2 63742  51.9012  73.7987 0008332 332.4009 162.8212 14.79791204  4752
KUIPER-00030            
1 63743U 25088V   25274.67903149  .00037956  00000+0  49663-2 0  9994
2 63743  51.9003  93.6821 0013375 267.4291  92.5140 14.79990851 24080
KUIPER-00031            
1 63744U 25088W   25274.69347678 -.00005013  00000+0 -62884-3 0  9998
2 63744  51.8988  79.6904 0002964 292.8633  67.2017 14.79941430 23992
KUIPER-00032            
1 63745U 25088X   25274.69303466  .00027921  00000+0  93500-3 0  9995
2 63745  51.8733  68.9871 0004709 271.2677  88.7768 15.30723867 25143
KUIPER-00033            
1 63746U 25088Y   25273.91853504  .00007779  00000+0  10499-2 0  9997
2 63746  51.8986 113.1014 0004178  31.5093 328.6119 14.79867367 23943
KUIPER-00034            
1 63747U 25088Z   25274.83335647  .00030686  00000+0  38127-2 0  9994
2 63747  51.8985  71.3509 0001002 288.0573 160.9350 14.82316476  5894
